ONEWEB-0228             
1 48780U 21045P   23320.35429975  .00000201  00000+0  49983-3 0  9991
2 48780  87.8986  87.0813 0001411  96.0317 264.0975 13.15551380120238
